CCSDS_OMM_VERS,COMMENT,CREATION_DATE,ORIGINATOR,OBJECT_NAME,OBJECT_ID,CENTER_NAME,REF_FRAME,TIME_SYSTEM,MEAN_ELEMENT_THEORY,EPOCH,MEAN_MOTION,ECCENTRICITY,INCLINATION,RA_OF_ASC_NODE,ARG_OF_PERICENTER,MEAN_ANOMALY,EPHEMERIS_TYPE,CLASSIFICATION_TYPE,NORAD_CAT_ID,ELEMENT_SET_NO,REV_AT_EPOCH,BSTAR,MEAN_MOTION_DOT,MEAN_MOTION_DDOT,SEMIMAJOR_AXIS,PERIOD,APOAPSIS,PERIAPSIS,OBJECT_TYPE,RCS_SIZE,COUNTRY_CODE,LAUNCH_DATE,SITE,DECAY_DATE,FILE,GP_ID,TLE_LINE0,TLE_LINE1,TLE_LINE2,NORAD_KEY
3.0,GENERATED VIA SPACE-TRACK.ORG API,2026-05-06T14:56:52,18 SPCS,JUPITER 3 (ECHOSTAR 24),2023-108A,EARTH,TEME,UTC,SGP4,2026-05-05T15:26:44.975904,1.0027198,9.82e-05,0.0137,289.0275,124.1114,306.8769,0,U,57479,999,1022,0.00000000000000,-0.00000142,0.0000000000000,42164.677,1436.094,35790.683,35782.402,PAYLOAD,LARGE,US,2023-07-29,AFETR,,5177537,322306652,0 JUPITER 3 (ECHOSTAR 24),1 57479U 23108A   26125.64357611 -.00000142  00000-0  00000+0 0  9992,2 57479   0.0137 289.0275 0000982 124.1114 306.8769  1.00271980 10223,57479
3.0,GENERATED VIA SPACE-TRACK.ORG API,2026-05-06T14:46:56,18 SPCS,INMARSAT 6-F1,2021-128A,EARTH,TEME,UTC,SGP4,2026-05-06T13:45:14.892192,1.00270918,2.59e-05,0.0138,270.2223,184.2932,59.9934,0,U,50319,999,1584,0.00000000000000,-0.00000164,0.0000000000000,42164.975,1436.109,35787.932,35785.748,PAYLOAD,LARGE,IM,2021-12-22,TNSTA,,5177296,322301515,0 INMARSAT 6-F1,1 50319U 21128A   26126.57308903 -.00000164  00000-0  00000+0 0  9995,2 50319   0.0138 270.2223 0000259 184.2932  59.9934  1.00270918 15840,50319
3.0,GENERATED VIA SPACE-TRACK.ORG API,2026-05-06T14:56:52,18 SPCS,JCSAT 18,2019-091A,EARTH,TEME,UTC,SGP4,2026-05-06T11:39:38.851776,1.00270175,2.48e-05,0.0138,304.3875,185.481,59.3894,0,U,44868,999,2359,0.00000000000000,-0.00000193,0.0000000000000,42165.183,1436.12,35788.094,35786.003,PAYLOAD,LARGE,JPN,2019-12-17,AFETR,,5177362,322301891,0 JCSAT 18,1 44868U 19091A   26126.48586634 -.00000193  00000-0  00000+0 0  9994,2 44868   0.0138 304.3875 0000248 185.4810  59.3894  1.00270175 23595,44868
3.0,GENERATED VIA SPACE-TRACK.ORG API,2026-05-06T14:46:56,18 SPCS,INTELSAT 14,2009-064A,EARTH,TEME,UTC,SGP4,2026-05-06T11:12:51.176736,1.0027116,0.00027,0.0138,278.6068,135.0636,293.8845,0,U,36097,999,6018,0.00000000000000,-0.00000266,0.0000000000000,42164.907,1436.106,35798.157,35775.388,PAYLOAD,LARGE,ITSO,2009-11-23,AFETR,,5177096,322295491,0 INTELSAT 14,1 36097U 09064A   26126.46725899 -.00000266  00000-0  00000+0 0  9995,2 36097   0.0138 278.6068 0002700 135.0636 293.8845  1.00271160 60181,36097
3.0,GENERATED VIA SPACE-TRACK.ORG API,2026-05-06T14:46:56,18 SPCS,ST 2,2011-022B,EARTH,TEME,UTC,SGP4,2026-05-06T11:50:47.540256,1.00272446,0.0002001,0.0138,268.1349,151.082,70.8515,0,U,37606,999,5486,0.00000000000000,-0.00000204,0.0000000000000,42164.547,1436.087,35794.849,35777.975,PAYLOAD,LARGE,STCT,2011-05-20,FRGUI,,5177116,322296760,0 ST 2,1 37606U 11022B   26126.49360579 -.00000204  00000-0  00000+0 0  9994,2 37606   0.0138 268.1349 0002001 151.0820  70.8515  1.00272446 54864,37606
3.0,GENERATED VIA SPACE-TRACK.ORG API,2026-05-06T14:46:56,18 SPCS,STARONE C3,2012-062A,EARTH,TEME,UTC,SGP4,2026-05-06T11:04:21.992160,1.00271304,0.0002891,0.0139,314.9315,113.8151,246.6742,0,U,38991,999,4934,0.00000000000000,-0.00000241,0.0000000000000,42164.867,1436.104,35798.922,35774.542,PAYLOAD,LARGE,BRAZ,2012-11-10,FRGUI,,5177134,322296986,0 STARONE C3,1 38991U 12062A   26126.46136565 -.00000241  00000-0  00000+0 0  9991,2 38991   0.0139 314.9315 0002891 113.8151 246.6742  1.00271304 49340,38991
3.0,GENERATED VIA SPACE-TRACK.ORG API,2026-05-06T14:46:56,18 SPCS,INTELSAT 34,2015-039A,EARTH,TEME,UTC,SGP4,2026-05-06T11:09:51.464736,1.00270142,3.3e-05,0.0139,293.8053,113.0496,289.4385,0,U,40874,999,3921,0.00000000000000,-0.00000278,0.0000000000000,42165.193,1436.12,35788.449,35785.666,PAYLOAD,LARGE,ITSO,2015-08-20,FRGUI,,5177163,322297884,0 INTELSAT 34,1 40874U 15039A   26126.46517899 -.00000278  00000-0  00000+0 0  9994,2 40874   0.0139 293.8053 0000330 113.0496 289.4385  1.00270142 39219,40874
3.0,GENERATED VIA SPACE-TRACK.ORG API,2026-05-06T14:46:56,18 SPCS,ECHOSTAR 14,2010-010A,EARTH,TEME,UTC,SGP4,2026-05-06T10:57:38.637216,1.00271772,0.0001916,0.014,273.2904,131.3021,225.2462,0,U,36499,999,4613,0.00000000000000,0.00000008,0.0000000000000,42164.736,1436.097,35794.679,35778.522,PAYLOAD,LARGE,US,2010-03-20,TTMTR,,5177102,322296586,0 ECHOSTAR 14,1 36499U 10010A   26126.45669719  .00000008  00000-0  00000+0 0  9994,2 36499   0.0140 273.2904 0001916 131.3021 225.2462  1.00271772 46137,36499
3.0,GENERATED VIA SPACE-TRACK.ORG API,2026-05-06T14:46:56,18 SPCS,TELKOM-4,2018-064A,EARTH,TEME,UTC,SGP4,2026-05-06T11:56:31.989408,1.00271745,0.0002533,0.014,255.815,185.6818,69.9945,0,U,43587,999,2846,0.00000000000000,-0.00000336,0.0000000000000,42164.743,1436.097,35797.289,35775.928,PAYLOAD,LARGE,INDO,2018-08-07,AFETR,,5177201,322298886,0 TELKOM-4,1 43587U 18064A   26126.49759247 -.00000336  00000-0  00000+0 0  9992,2 43587   0.0140 255.8150 0002533 185.6818  69.9945  1.00271745 28469,43587
3.0,GENERATED VIA SPACE-TRACK.ORG API,2026-05-06T14:46:56,18 SPCS,TELSTAR 11N,2009-009A,EARTH,TEME,UTC,SGP4,2026-05-06T09:32:23.504064,1.00271097,0.0002673,0.0141,282.7309,114.9326,292.1499,0,U,34111,999,4582,0.00000000000000,-0.00000243,0.0000000000000,42164.925,1436.107,35798.061,35775.519,PAYLOAD,LARGE,CA,2009-02-26,TTMTR,,5177030,322293972,0 TELSTAR 11N,1 34111U 09009A   26126.39749426 -.00000243  00000-0  00000+0 0  9998,2 34111   0.0141 282.7309 0002673 114.9326 292.1499  1.00271097 45825,34111
3.0,GENERATED VIA SPACE-TRACK.ORG API,2026-05-06T14:46:56,18 SPCS,EXPRESS AM-8,2015-048A,EARTH,TEME,UTC,SGP4,2026-05-06T09:39:00.371232,1.00272579,2.9e-05,0.0141,263.1061,120.4843,331.428,0,U,40895,999,3892,0.00000000000000,-0.00000103,0.0000000000000,42164.509,1436.086,35787.597,35785.152,PAYLOAD,LARGE,CIS,2015-09-14,TTMTR,,5177163,322297390,0 EXPRESS AM-8,1 40895U 15048A   26126.40208763 -.00000103  00000-0  00000+0 0  9995,2 40895   0.0141 263.1061 0000290 120.4843 331.4280  1.00272579 38922,40895
3.0,GENERATED VIA SPACE-TRACK.ORG API,2026-05-06T14:46:56,18 SPCS,WGS 7 (USA 263),2015-036A,EARTH,TEME,UTC,SGP4,2026-05-06T11:21:38.551104,1.00270106,2.17e-05,0.0143,290.7909,221.1137,57.8326,0,U,40746,999,3945,0.00000000000000,0.00000025,0.0000000000000,42165.203,1436.121,35787.983,35786.153,PAYLOAD,LARGE,US,2015-07-24,AFETR,,5177162,322297872,0 WGS 7 (USA 263),1 40746U 15036A   26126.47336286  .00000025  00000-0  00000+0 0  9998,2 40746   0.0143 290.7909 0000217 221.1137  57.8326  1.00270106 39453,40746
3.0,GENERATED VIA SPACE-TRACK.ORG API,2026-05-06T14:56:52,18 SPCS,SPAINSAT NG1,2025-021A,EARTH,TEME,UTC,SGP4,2026-05-06T11:33:56.655072,1.00271501,2.42e-05,0.0145,281.5498,144.8156,0.455,0,U,62852,999,356,0.00000000000000,0.00000159,0.0000000000000,42164.812,1436.101,35787.697,35785.656,PAYLOAD,LARGE,SPN,2025-01-30,AFETR,,5177668,322310321,0 SPAINSAT NG1,1 62852U 25021A   26126.48190573  .00000159  00000-0  00000+0 0  9991,2 62852   0.0145 281.5498 0000242 144.8156   0.4550  1.00271501  3564,62852
3.0,GENERATED VIA SPACE-TRACK.ORG API,2026-05-06T14:46:56,18 SPCS,SKY MUSTER,2015-054A,EARTH,TEME,UTC,SGP4,2026-05-06T12:06:57.089088,1.00271242,0.0001964,0.0145,272.519,135.1755,138.6814,0,U,40940,999,3884,0.00000000000000,-0.00000271,0.0000000000000,42164.884,1436.105,35795.03,35778.468,PAYLOAD,LARGE,AUS,2015-09-30,FRGUI,,5177164,322297400,0 SKY MUSTER,1 40940U 15054A   26126.50482742 -.00000271  00000-0  00000+0 0  9991,2 40940   0.0145 272.5190 0001964 135.1755 138.6814  1.00271242 38845,40940
3.0,GENERATED VIA SPACE-TRACK.ORG API,2026-05-06T14:46:56,18 SPCS,BRISAT,2016-039A,EARTH,TEME,UTC,SGP4,2026-05-06T11:39:38.851776,1.00269838,0.000225,0.0146,272.1458,135.9252,141.6942,0,U,41591,999,3619,0.00000000000000,-0.00000189,0.0000000000000,42165.278,1436.125,35796.63,35777.656,PAYLOAD,LARGE,INDO,2016-06-18,FRGUI,,5177174,322298526,0 BRISAT,1 41591U 16039A   26126.48586634 -.00000189  00000-0  00000+0 0  9998,2 41591   0.0146 272.1458 0002250 135.9252 141.6942  1.00269838 36191,41591
3.0,GENERATED VIA SPACE-TRACK.ORG API,2026-05-06T10:08:52,18 SPCS,SIRIUS XM-9,2024-234A,EARTH,TEME,UTC,SGP4,2026-05-06T05:53:22.382016,1.00271349,0.0004553,0.0146,313.2817,0.3394,273.6833,0,U,62259,999,515,0.00000000000000,-0.00000197,0.0000000000000,42164.854,1436.103,35805.917,35767.522,PAYLOAD,LARGE,US,2024-12-05,AFETR,,5176958,322286367,0 SIRIUS XM-9,1 62259U 24234A   26126.24539794 -.00000197  00000-0  00000-0 0  9997,2 62259   0.0146 313.2817 0004553   0.3394 273.6833  1.00271349  5158,62259
3.0,GENERATED VIA SPACE-TRACK.ORG API,2026-05-06T14:46:56,18 SPCS,TELSTAR 12V,2015-068A,EARTH,TEME,UTC,SGP4,2026-05-06T09:38:45.393792,1.00272333,0.0002626,0.0147,285.2707,118.5903,310.1069,0,U,41036,999,3820,0.00000000000000,-0.00000111,0.0000000000000,42164.578,1436.089,35797.516,35775.371,PAYLOAD,LARGE,CA,2015-11-24,TNSTA,,5177165,322297915,0 TELSTAR 12V,1 41036U 15068A   26126.40191428 -.00000111  00000-0  00000+0 0  9993,2 41036   0.0147 285.2707 0002626 118.5903 310.1069  1.00272333 38206,41036
3.0,GENERATED VIA SPACE-TRACK.ORG API,2026-05-06T14:46:56,18 SPCS,GSAT 31,2019-007B,EARTH,TEME,UTC,SGP4,2026-05-06T11:39:26.129376,1.00273583,0.000253,0.0148,257.356,98.4999,91.2531,0,U,44035,999,2654,0.00000000000000,0.00000133,0.0000000000000,42164.228,1436.071,35796.76,35775.425,PAYLOAD,MEDIUM,IND,2019-02-05,FRGUI,,5177211,322299007,0 GSAT 31,1 44035U 19007B   26126.48571909  .00000133  00000-0  00000+0 0  9999,2 44035   0.0148 257.3560 0002530  98.4999  91.2531  1.00273583 26544,44035
